ORBCOMM FM110           
1 41182U 15081D   26176.87007757  .00000594  00000+0  16170-3 0  9999
2 41182  47.0031 320.3877 0002584 128.0732 232.0387 14.58892092558893
ORBCOMM FM118           
1 41183U 15081E   26176.90435559  .00000381  00000+0  11675-3 0  9998
2 41183  47.0054 320.5586 0002319  77.9621 282.1524 14.58886133559005
ORBCOMM FM112           
1 41184U 15081F   26176.49784057  .00000383  00000+0  11714-3 0  9999
2 41184  46.9976 230.9484 0004073 250.8293 109.2152 14.58913169560169
ORBCOMM FM113           
1 41185U 15081G   26175.85835780  .00000236  00000+0  86127-4 0  9997
2 41185  46.9996 234.3526 0002552 251.1934 108.8675 14.58864475560051
ORBCOMM FM108           
1 41187U 15081J   26177.19039162  .00000625  00000+0  16846-3 0  9990
2 41187  47.0037 139.6294 0003129 255.2318 104.8221 14.58884496561398
ORBCOMM FM117           
1 41188U 15081K   26176.60807448  .00000274  00000+0  94183-4 0  9997
2 41188  46.9999 141.0141 0003651 256.7948 103.2531 14.58870589561358
ORBCOMM FM116           
1 41189U 15081L   26176.51992163  .00000412  00000+0  12318-3 0  9990
2 41189  47.0011 231.2222 0000645 150.1988 209.8935 14.58892527560153
EXPRESS-AMU1            
1 41191U 15082A   26177.17379948  .00000166  00000+0  00000+0 0  9994
2 41191   0.0168  32.8170 0002963  62.5921 277.5346  1.00271812 38354
GAOFEN-4                
1 41194U 15083A   26176.90227766 -.00000324  00000+0  00000+0 0  9995
2 41194   0.3805  83.9226 0004051 113.8387 146.7998  1.00271078 38616
BELINTERSAT-1           
1 41238U 16001A   26177.17683284  .00000118  00000+0  00000+0 0  9996
2 41238   0.0061 227.5388 0001796 197.8757 324.0465  1.00270523 38329
JASON-3                 
1 41240U 16002A   26177.01244624 -.00000076  00000+0 -53183-4 0  9994
2 41240  66.0414 107.2818 0008418 272.3355  87.6700 12.87556148488385
IRNSS-1E                
1 41241U 16003A   26176.59836588 -.00000319  00000+0  00000+0 0  9998
2 41241  33.2517  59.6282 0019062 179.1130   2.2203  1.00274592 38164
EUTELSAT 9B             
1 41310U 16005A   26177.16842611  .00000072  00000+0  00000+0 0  9990
2 41310   0.0444  62.5804 0001774   2.0921 279.2643  1.00269851 38209
NAVSTAR 76 (USA 266)    
1 41328U 16007A   26174.85002808 -.00000060  00000+0  00000+0 0  9998
2 41328  55.5277  89.1954 0095820 247.3210 111.6653  2.00551374 75978
COSMOS 2514 [GLONASS-M] 
1 41330U 16008A   26174.85480678 -.00000083  00000+0  00000+0 0  9992
2 41330  65.0172 312.7777 0011551 198.7083 161.2407  2.13102654 80763
SENTINEL-3A             
1 41335U 16011A   26177.19319132  .00000094  00000+0  56795-4 0  9995
2 41335  98.6246 244.4474 0001432  97.1017 263.0326 14.26734963539348
HORYU-4                 
1 41340U 16012D   26176.91821065  .01006703  53081-3  12774-2 0  9996
2 41340  30.9835  14.4936 0008742 324.9122  35.0966 16.06293383572210
SES-9                   
1 41380U 16013A   26176.40380905 -.00000335  00000+0  00000+0 0  9998
2 41380   0.0123 330.7857 0002423 116.8635  79.5646  1.00272436 37527
EUTELSAT 65 WEST A      
1 41382U 16014A   26177.14350500 -.00000265  00000+0  00000+0 0  9993
2 41382   0.0465 353.7369 0002733  98.2576 168.7467  1.00271914 37614
IRNSS-1F                
1 41384U 16015A   26176.95919204  .00000164  00000+0  00000+0 0  9993
2 41384   5.3703  96.5826 0017447 184.4675  10.7518  1.00271994 37751
COSMOS 2515             
1 41394U 16020A   26177.21005580  .00000965  00000+0  66986-4 0  9992
2 41394  97.9756 193.0254 0021787 272.6697  87.2036 15.07973953561775
BEIDOU-2 IGSO-6         
1 41434U 16021A   26175.09191728 -.00000155  00000+0  00000+0 0  9994
2 41434  60.2358  37.9691 0057538 231.1257 128.7042  1.00259092 37558
IRNSS-1G                
1 41469U 16027A   26176.35615294 -.00000329  00000+0  00000+0 0  9990
2 41469   5.2158  97.2878 0006269   2.9813  70.7125  1.00276580 37263
JCSAT-2B                
1 41471U 16028A   26176.98319882 -.00000155  00000+0  00000+0 0  9994
2 41471   0.0186  10.9972 0001191  78.5320 332.5344  1.00271027 37216
YAOGAN-30 01            
1 41473U 16029A   26177.17085760  .00000691  00000+0  10686-3 0  9993
2 41473  97.9011 226.8737 0014937 199.2958 160.7688 14.76277578544991
GSAT0211 (GALILEO 14)   
1 41549U 16030A   26174.83541472  .00000046  00000+0  00000+0 0  9995
2 41549  55.0937 221.5119 0003056 321.3377  38.7209  1.70474023 62785
GSAT0210 (GALILEO 13)   
1 41550U 16030B   26176.26585571  .00000056  00000+0  00000+0 0  9995
2 41550  55.0912 221.4705 0008659 257.5264 102.4641  1.70473937 62804
THAICOM 8               
1 41552U 16031A   26177.18220618 -.00000110  00000+0  00000+0 0  9990
2 41552   0.0708  47.0889 0003828  18.6688 352.6341  1.00272257 36805
ZIYUAN 3-02 (ZY 3-02)   
1 41556U 16033A   26177.20123148  .00005761  00000+0  26041-3 0  9992
2 41556  97.3838 252.8021 0012452 255.9364 104.0488 15.21260093559350
COSMOS 2517 (GEO-IK 2)  
1 41579U 16034A   26177.16741766 -.00000012  00000+0  27852-4 0  9992
2 41579  99.1878 185.7826 0001033  89.2665 270.8609 13.85911068508872
INTELSAT 31 (IS-31)     
1 41581U 16035A   26177.19426395 -.00000140  00000+0  00000+0 0  9990
2 41581   0.0144 283.5507 0000699 334.6918 350.9622  1.00272040 36774
